start=new Date('2023-06-09T00:00:00.000Z').valueOf();
sats=[{"MEAN_ANOMALY":"269.1189","MEAN_MOTION":"15.08842178","RCS_SIZE":"LARGE","MEAN_MOTION_DDOT":"0.0000000000000","FILE":"3928007","REF_FRAME":"TEME","COUNTRY_CODE":"US","ELEMENT_SET_NO":"999","OBJECT_ID":"2021-125AQ","CLASSIFICATION_TYPE":"U","APOAPSIS":"540.518","PERIAPSIS":"538.959","TIME_SYSTEM":"UTC","REV_AT_EPOCH":"8498","TLE_LINE2":"2 50194  53.2177  73.0680 0001127  90.9932 269.1189 15.08842178 84982","PERIOD":"95.437","SEMIMAJOR_AXIS":"6917.874","CENTER_NAME":"EARTH","EPHEMERIS_TYPE":"0","SITE":"AFWTR","EPOCH":"2023-06-08T04:09:03.212640","BSTAR":"0.00006756100000","GP_ID":"233472275","TLE_LINE1":"1 50194U 21125AQ  23159.17295385  .00000788  00000-0  67561-4 0  9992","LAUNCH_DATE":"2021-12-18","MEAN_MOTION_DOT":"0.00000788","OBJECT_NAME":"STARLINK-3269","INCLINATION":"53.2177","OBJECT_TYPE":"PAYLOAD","DECAY_DATE":null,"ECCENTRICITY":"0.00011270","ARG_OF_PERICENTER":"90.9932","MEAN_ELEMENT_THEORY":"SGP4","NORAD_CAT_ID":"50194","RA_OF_ASC_NODE":"73.0680"},{"ARG_OF_PERICENTER":"116.6400","RA_OF_ASC_NODE":"73.3081","NORAD_CAT_ID":"50195","MEAN_ELEMENT_THEORY":"SGP4","INCLINATION":"53.2183","OBJECT_NAME":"STARLINK-3266","MEAN_MOTION_DOT":"-0.00001120","TLE_LINE1":"1 50195U 21125AR  23159.11680265 -.00001120  00000-0 -52316-4 0  9997","LAUNCH_DATE":"2021-12-18","DECAY_DATE":null,"ECCENTRICITY":"0.00013800","OBJECT_TYPE":"PAYLOAD","EPHEMERIS_TYPE":"0","CENTER_NAME":"EARTH","SEMIMAJOR_AXIS":"6917.897","GP_ID":"233470525","BSTAR":"-0.00005231600000","EPOCH":"2023-06-08T02:48:11.748960","SITE":"AFWTR","REF_FRAME":"TEME","FILE":"3928007","MEAN_MOTION_DDOT":"0.0000000000000","RCS_SIZE":"LARGE","MEAN_MOTION":"15.08834593","MEAN_ANOMALY":"243.4733","REV_AT_EPOCH":"8492","TLE_LINE2":"2 50195  53.2183  73.3081 0001380 116.6400 243.4733 15.08834593 84921","PERIOD":"95.438","TIME_SYSTEM":"UTC","APOAPSIS":"540.717","PERIAPSIS":"538.807","CLASSIFICATION_TYPE":"U","OBJECT_ID":"2021-125AR","ELEMENT_SET_NO":"999","COUNTRY_CODE":"US"},{"SEMIMAJOR_AXIS":"6917.884","CENTER_NAME":"EARTH","EPHEMERIS_TYPE":"0","EPOCH":"2023-06-08T00:52:59.555424","SITE":"AFWTR","BSTAR":"0.00007083000000","GP_ID":"233470775","MEAN_MOTION":"15.08838801","MEAN_ANOMALY":"272.5396","RCS_SIZE":"LARGE","REF_FRAME":"TEME","MEAN_MOTION_DDOT":"0.0000000000000","FILE":"3928007","OBJECT_ID":"2021-125AS","ELEMENT_SET_NO":"999","COUNTRY_CODE":"US","PERIAPSIS":"538.995","APOAPSIS":"540.503","CLASSIFICATION_TYPE":"U","TIME_SYSTEM":"UTC","TLE_LINE2":"2 50196  53.2182  73.7227 0001090  87.5721 272.5396 15.08838801 84910","PERIOD":"95.438","REV_AT_EPOCH":"8491","ARG_OF_PERICENTER":"87.5721","MEAN_ELEMENT_THEORY":"SGP4","NORAD_CAT_ID":"50196","RA_OF_ASC_NODE":"73.7227","LAUNCH_DATE":"2021-12-18","TLE_LINE1":"1 50196U 21125AS  23159.03680041  .00000840  00000-0  70830-4 0  9998","MEAN_MOTION_DOT":"0.00000840","OBJECT_NAME":"STARLINK-3263","INCLINATION":"53.2182","OBJECT_TYPE":"PAYLOAD","ECCENTRICITY":"0.00010900","DECAY_DATE":null},{"OBJECT_TYPE":"PAYLOAD","DECAY_DATE":null,"ECCENTRICITY":"0.00011570","TLE_LINE1":"1 50197U 21125AT  23159.03584185  .00000421  00000-0  44564-4 0  9991","LAUNCH_DATE":"2021-12-18","MEAN_MOTION_DOT":"0.00000421","OBJECT_NAME":"STARLINK-3267","INCLINATION":"53.2184","MEAN_ELEMENT_THEORY":"SGP4","NORAD_CAT_ID":"50197","RA_OF_ASC_NODE":"73.6732","ARG_OF_PERICENTER":"94.7702","COUNTRY_CODE":"US","ELEMENT_SET_NO":"999","OBJECT_ID":"2021-125AT","CLASSIFICATION_TYPE":"U","APOAPSIS":"540.556","PERIAPSIS":"538.956","TIME_SYSTEM":"UTC","TLE_LINE2":"2 50197  53.2184  73.6732 0001157  94.7702 265.3422 15.08836530 84968","REV_AT_EPOCH":"8496","PERIOD":"95.438","MEAN_ANOMALY":"265.3422","MEAN_MOTION":"15.08836530","RCS_SIZE":"LARGE","FILE":"3928007","MEAN_MOTION_DDOT":"0.0000000000000","REF_FRAME":"TEME","SITE":"AFWTR","EPOCH":"2023-06-08T00:51:36.735840","BSTAR":"0.00004456400000","GP_ID":"233471527","SEMIMAJOR_AXIS":"6917.891","CENTER_NAME":"EARTH","EPHEMERIS_TYPE":"0"},{"TLE_LINE1":"1 50198U 21125AU  23159.08736498  .00000754  00000-0  65448-4 0  9996","LAUNCH_DATE":"2021-12-18","MEAN_MOTION_DOT":"0.00000754","OBJECT_NAME":"STARLINK-3264","INCLINATION":"53.2173","OBJECT_TYPE":"PAYLOAD","DECAY_DATE":null,"ECCENTRICITY":"0.00012410","ARG_OF_PERICENTER":"81.2553","MEAN_ELEMENT_THEORY":"SGP4","NORAD_CAT_ID":"50198","RA_OF_ASC_NODE":"73.4444","MEAN_MOTION":"15.08833634","MEAN_ANOMALY":"278.8580","RCS_SIZE":"LARGE","REF_FRAME":"TEME","MEAN_MOTION_DDOT":"0.0000000000000","FILE":"3928007","ELEMENT_SET_NO":"999","OBJECT_ID":"2021-125AU","COUNTRY_CODE":"US","APOAPSIS":"540.623","PERIAPSIS":"538.906","CLASSIFICATION_TYPE":"U","TIME_SYSTEM":"UTC","TLE_LINE2":"2 50198  53.2173  73.4444 0001241  81.2553 278.8580 15.08833634 84926","REV_AT_EPOCH":"8492","PERIOD":"95.438","SEMIMAJOR_AXIS":"6917.900","CENTER_NAME":"EARTH","EPHEMERIS_TYPE":"0","EPOCH":"2023-06-08T02:05:48.334272","SITE":"AFWTR","BSTAR":"0.00006544800000","GP_ID":"233471775"},{"SEMIMAJOR_AXIS":"6917.881","CENTER_NAME":"EARTH","EPHEMERIS_TYPE":"0","SITE":"AFWTR","EPOCH":"2023-06-08T03:14:41.356896","BSTAR":"0.00001151800000","GP_ID":"233471026","MEAN_ANOMALY":"261.9253","MEAN_MOTION":"15.08839829","RCS_SIZE":"LARGE","MEAN_MOTION_DDOT":"0.0000000000000","FILE":"3928007","REF_FRAME":"TEME","COUNTRY_CODE":"US","ELEMENT_SET_NO":"999","OBJECT_ID":"2021-125AV","CLASSIFICATION_TYPE":"U","APOAPSIS":"540.477","PERIAPSIS":"539.015","TIME_SYSTEM":"UTC","REV_AT_EPOCH":"8492","TLE_LINE2":"2 50199  53.2178  73.2302 0001057  98.1859 261.9253 15.08839829 84926","PERIOD":"95.438","ARG_OF_PERICENTER":"98.1859","MEAN_ELEMENT_THEORY":"SGP4","NORAD_CAT_ID":"50199","RA_OF_ASC_NODE":"73.2302","TLE_LINE1":"1 50199U 21125AV  23159.13520089 -.00000104  00000-0  11518-4 0  9999","LAUNCH_DATE":"2021-12-18","MEAN_MOTION_DOT":"-0.00000104","OBJECT_NAME":"STARLINK-3270","INCLINATION":"53.2178","OBJECT_TYPE":"PAYLOAD","DECAY_DATE":null,"ECCENTRICITY":"0.00010570"},{"MEAN_MOTION":"15.08846361","MEAN_ANOMALY":"267.2955","RCS_SIZE":"LARGE","REF_FRAME":"TEME","MEAN_MOTION_DDOT":"0.0000000000000","FILE":"3928007","ELEMENT_SET_NO":"999","OBJECT_ID":"2021-125AW","COUNTRY_CODE":"US","APOAPSIS":"540.604","PERIAPSIS":"538.848","CLASSIFICATION_TYPE":"U","TIME_SYSTEM":"UTC","PERIOD":"95.437","TLE_LINE2":"2 50200  53.2179  73.1162 0001269  92.8182 267.2955 15.08846361 84947","REV_AT_EPOCH":"8494","SEMIMAJOR_AXIS":"6917.861","CENTER_NAME":"EARTH","EPHEMERIS_TYPE":"0","EPOCH":"2023-06-08T03:53:09.089664","SITE":"AFWTR","BSTAR":"0.00008747300000","GP_ID":"233471276","TLE_LINE1":"1 50200U 21125AW  23159.16191076  .00001105  00000-0  87473-4 0  9999","LAUNCH_DATE":"2021-12-18","MEAN_MOTION_DOT":"0.00001105","OBJECT_NAME":"STARLINK-3235","INCLINATION":"53.2179","OBJECT_TYPE":"PAYLOAD","DECAY_DATE":null,"ECCENTRICITY":"0.00012690","ARG_OF_PERICENTER":"92.8182","MEAN_ELEMENT_THEORY":"SGP4","NORAD_CAT_ID":"50200","RA_OF_ASC_NODE":"73.1162"},{"RA_OF_ASC_NODE":"73.7616","NORAD_CAT_ID":"50201","MEAN_ELEMENT_THEORY":"SGP4","ARG_OF_PERICENTER":"89.5597","ECCENTRICITY":"0.00012780","DECAY_DATE":null,"OBJECT_TYPE":"PAYLOAD","INCLINATION":"53.2168","OBJECT_NAME":"STARLINK-3255","MEAN_MOTION_DOT":"0.00000795","LAUNCH_DATE":"2021-12-18","TLE_LINE1":"1 50201U 21125AX  23159.01840177  .00000795  00000-0  68037-4 0  9996","GP_ID":"233472028","BSTAR":"0.00006803700000","SITE":"AFWTR","EPOCH":"2023-06-08T00:26:29.912928","EPHEMERIS_TYPE":"0","CENTER_NAME":"EARTH","SEMIMAJOR_AXIS":"6917.903","TLE_LINE2":"2 50201  53.2168  73.7616 0001278  89.5597 270.5542 15.08832500 84915","REV_AT_EPOCH":"8491","PERIOD":"95.438","TIME_SYSTEM":"UTC","CLASSIFICATION_TYPE":"U","PERIAPSIS":"538.884","APOAPSIS":"540.652","COUNTRY_CODE":"US","OBJECT_ID":"2021-125AX","ELEMENT_SET_NO":"999","MEAN_MOTION_DDOT":"0.0000000000000","FILE":"3928007","REF_FRAME":"TEME","RCS_SIZE":"LARGE","MEAN_ANOMALY":"270.5542","MEAN_MOTION":"15.08832500"},{"MEAN_MOTION_DDOT":"0.0000000000000","FILE":"3928007","REF_FRAME":"TEME","RCS_SIZE":"LARGE","MEAN_ANOMALY":"269.1925","MEAN_MOTION":"15.08832708","PERIOD":"95.438","TLE_LINE2":"2 50202  53.2177  73.8390 0001261  90.9211 269.1925 15.08832708 84905","REV_AT_EPOCH":"8490","TIME_SYSTEM":"UTC","CLASSIFICATION_TYPE":"U","APOAPSIS":"540.640","PERIAPSIS":"538.895","COUNTRY_CODE":"US","ELEMENT_SET_NO":"999","OBJECT_ID":"2021-125AY","EPHEMERIS_TYPE":"0","CENTER_NAME":"EARTH","SEMIMAJOR_AXIS":"6917.903","GP_ID":"233472276","BSTAR":"0.00000582240000","SITE":"AFWTR","EPOCH":"2023-06-07T23:58:37.438752","INCLINATION":"53.2177","OBJECT_NAME":"STARLINK-3256","MEAN_MOTION_DOT":"-0.00000195","TLE_LINE1":"1 50202U 21125AY  23158.99904443 -.00000195  00000-0  58224-5 0  9993","LAUNCH_DATE":"2021-12-18","DECAY_DATE":null,"ECCENTRICITY":"0.00012610","OBJECT_TYPE":"PAYLOAD","ARG_OF_PERICENTER":"90.9211","RA_OF_ASC_NODE":"73.8390","NORAD_CAT_ID":"50202","MEAN_ELEMENT_THEORY":"SGP4"},{"MEAN_MOTION_DDOT":"0.0000000000000","FILE":"3928007","REF_FRAME":"TEME","MEAN_ANOMALY":"259.3116","MEAN_MOTION":"15.08835394","RCS_SIZE":"LARGE","TIME_SYSTEM":"UTC","TLE_LINE2":"2 50203  53.2181  73.7215 0001166 100.8007 259.3116 15.08835394 84978","REV_AT_EPOCH":"8497","PERIOD":"95.438","COUNTRY_CODE":"US","ELEMENT_SET_NO":"999","OBJECT_ID":"2021-125AZ","CLASSIFICATION_TYPE":"U","APOAPSIS":"540.566","PERIAPSIS":"538.953","CENTER_NAME":"EARTH","EPHEMERIS_TYPE":"0","SEMIMAJOR_AXIS":"6917.894","GP_ID":"233470526","SITE":"AFWTR","EPOCH":"2023-06-08T00:35:43.037088","BSTAR":"0.00001132800000","OBJECT_NAME":"STARLINK-3257","INCLINATION":"53.2181","LAUNCH_DATE":"2021-12-18","TLE_LINE1":"1 50203U 21125AZ  23159.02480367 -.00000108  00000-0  11328-4 0  9990","MEAN_MOTION_DOT":"-0.00000108","ECCENTRICITY":"0.00011660","DECAY_DATE":null,"OBJECT_TYPE":"PAYLOAD","ARG_OF_PERICENTER":"100.8007","NORAD_CAT_ID":"50203","RA_OF_ASC_NODE":"73.7215","MEAN_ELEMENT_THEORY":"SGP4"}];
